NORAD_CAT_ID,OBJECT_NAME,OBJECT_TYPE,EPOCH,MEAN_MOTION,ECCENTRICITY,INCLINATION,RA_OF_ASC_NODE,ARG_OF_PERICENTER,MEAN_ANOMALY,BSTAR,MEAN_MOTION_DOT,MEAN_MOTION_DDOT,TLE_LINE0,TLE_LINE1,TLE_LINE2,SEMIMAJOR_AXIS,PERIOD,APOGEE,PERIGEE,DECAYED
52495.0,STARLINK-3905,PAYLOAD,2024-02-19 15:34:30,15.08834498,0.000171,53.2166,171.6937,97.3864,262.7322,-2.0578e-05,-6.16e-06,0.0,0 STARLINK-3905,1 52495U 22049AW  24050.64895837 -.00000616  00000-0 -20578-4 0  9994,2 52495  53.2166 171.6937 0001710  97.3864 262.7322 15.08834498 99316,6917.897,95.438,540.945,538.579,0.0
52495.0,STARLINK-3905,PAYLOAD,2024-02-20 13:49:54,15.08841671,0.000124,53.2146,167.5305,92.1438,267.9696,0.00022911,3.36e-05,0.0,0 STARLINK-3905,1 52495U 22049AW  24051.57631982  .00003360  00000-0  22911-3 0  9995,2 52495  53.2146 167.5305 0001240  92.1438 267.9696 15.08841671 99452,6917.875,95.437,540.598,538.882,0.0
52495.0,STARLINK-3905,PAYLOAD,2024-02-20 15:25:17,15.08842827,0.0001383,53.2159,167.2332,90.2702,269.8448,0.00026981,4.009e-05,0.0,0 STARLINK-3905,1 52495U 22049AW  24051.64255992  .00004009  00000-0  26981-3 0  9998,2 52495  53.2159 167.2332 0001383  90.2702 269.8448 15.08842827 99623,6917.872,95.437,540.693,538.78,0.0
52495.0,STARLINK-3905,PAYLOAD,2024-02-21 13:40:41,15.08847387,0.000155,53.2161,163.0709,89.9285,270.1885,0.00032061,4.819e-05,0.0,0 STARLINK-3905,1 52495U 22049AW  24052.56992045  .00004819  00000-0  32061-3 0  9992,2 52495  53.2161 163.0709 0001550  89.9285 270.1885 15.08847387 99609,6917.858,95.437,540.795,538.651,0.0
52495.0,STARLINK-3905,PAYLOAD,2024-02-22 11:56:05,15.08845117,0.0001529,53.217,158.9078,96.5534,263.5632,0.00021652,3.16e-05,0.0,0 STARLINK-3905,1 52495U 22049AW  24053.49728043  .00003160  00000-0  21652-3 0  9992,2 52495  53.2170 158.9078 0001529  96.5534 263.5632 15.08845117 99906,6917.865,95.437,540.787,538.672,0.0
52495.0,STARLINK-3905,PAYLOAD,2024-02-22 13:31:28,15.08845794,0.0001535,53.2165,158.6105,90.3858,269.731,0.00020903,3.041e-05,0.0,0 STARLINK-3905,1 52495U 22049AW  24053.56351945  .00003041  00000-0  20903-3 0  9999,2 52495  53.2165 158.6105 0001535  90.3858 269.7310 15.08845794 99751,6917.863,95.437,540.79,538.666,0.0
52495.0,STARLINK-3905,PAYLOAD,2024-02-23 11:46:52,15.08843145,0.0001777,53.2172,154.4481,97.3154,262.8041,0.0001329,1.828e-05,0.0,0 STARLINK-3905,1 52495U 22049AW  24054.49088117  .00001828  00000-0  13290-3 0  9992,2 52495  53.2172 154.4481 0001777  97.3154 262.8041 15.08843145100053,6917.871,95.437,540.965,538.506,0.0
52495.0,STARLINK-3905,PAYLOAD,2024-02-23 13:22:15,15.08849161,0.0001655,53.2173,154.1513,87.1508,272.9674,0.00010027,1.308e-05,0.0,0 STARLINK-3905,1 52495U 22049AW  24054.55711894  .00001308  00000-0  10027-3 0  9992,2 52495  53.2173 154.1513 0001655  87.1508 272.9674 15.08849161 99901,6917.852,95.437,540.862,538.572,0.0
52495.0,STARLINK-3905,PAYLOAD,2024-02-24 11:37:39,15.08841104,0.0001696,53.2177,149.9906,88.4612,271.6575,9.4797e-05,1.221e-05,0.0,0 STARLINK-3905,1 52495U 22049AW  24055.48448284  .00001221  00000-0  94797-4 0  9996,2 52495  53.2177 149.9906 0001696  88.4612 271.6575 15.08841104100209,6917.877,95.437,540.915,538.569,0.0
52495.0,STARLINK-3905,PAYLOAD,2024-02-24 13:13:02,15.0884614,0.0001563,53.2167,149.6887,89.2389,270.8782,0.00013491,1.86e-05,0.0,0 STARLINK-3905,1 52495U 22049AW  24055.55071914  .00001860  00000-0  13491-3 0  9996,2 52495  53.2167 149.6887 0001563  89.2389 270.8782 15.08846140100055,6917.862,95.437,540.808,538.645,0.0
52495.0,STARLINK-3905,PAYLOAD,2024-02-25 13:03:49,15.08843109,0.0001526,53.2166,145.2325,98.3248,261.7917,8.0954e-05,1.001e-05,0.0,0 STARLINK-3905,1 52495U 22049AW  24056.54432040  .00001001  00000-0  80954-4 0  9993,2 52495  53.2166 145.2325 0001526  98.3248 261.7917 15.08843109100362,6917.871,95.437,540.792,538.68,0.0
52495.0,STARLINK-3905,PAYLOAD,2024-02-25 22:36:07,15.08849588,0.0001481,53.2166,143.4474,92.1707,267.9455,0.00013367,1.841e-05,0.0,0 STARLINK-3905,1 52495U 22049AW  24056.94175592  .00001841  00000-0  13367-3 0  9998,2 52495  53.2166 143.4474 0001481  92.1707 267.9455 15.08849588100260,6917.851,95.437,540.741,538.692,0.0
52495.0,STARLINK-3905,PAYLOAD,2024-02-26 14:29:59,15.08846997,0.0001603,53.2173,140.4708,79.9848,280.1325,9.1711e-05,1.172e-05,0.0,0 STARLINK-3905,1 52495U 22049AW  24057.60415825  .00001172  00000-0  91711-4 0  9995,2 52495  53.2173 140.4708 0001603  79.9848 280.1325 15.08846997100365,6917.859,95.437,540.833,538.615,0.0
52495.0,STARLINK-3905,PAYLOAD,2024-02-27 11:10:00,15.08837839,0.0001395,53.2164,136.6048,97.0142,263.1009,-2.3522e-05,-6.62e-06,0.0,0 STARLINK-3905,1 52495U 22049AW  24058.46528861 -.00000662  00000-0 -23522-4 0  9995,2 52495  53.2164 136.6048 0001395  97.0142 263.1009 15.08837839100652,6917.887,95.438,540.717,538.787,0.0
52495.0,STARLINK-3905,PAYLOAD,2024-02-27 12:45:24,15.08839757,0.0001421,53.217,136.3079,93.0895,267.026,-2.5784e-05,-6.98e-06,0.0,0 STARLINK-3905,1 52495U 22049AW  24058.53152820 -.00000698  00000-0 -25784-4 0  9992,2 52495  53.2170 136.3079 0001421  93.0895 267.0260 15.08839757100508,6917.881,95.438,540.729,538.763,0.0
52495.0,STARLINK-3905,PAYLOAD,2024-02-27 22:17:43,15.08835368,0.00017,53.2184,134.5257,80.6412,279.4772,-1.8352e-05,-5.8e-06,0.0,0 STARLINK-3905,1 52495U 22049AW  24058.92897298 -.00000580  00000-0 -18352-4 0  9993,2 52495  53.2184 134.5257 0001700  80.6412 279.4772 15.08835368100563,6917.895,95.438,540.936,538.584,0.0
52495.0,STARLINK-3905,PAYLOAD,2024-02-28 11:00:48,15.08831205,0.0001417,53.2156,132.1445,80.3526,279.7626,5.698e-05,6.19e-06,0.0,0 STARLINK-3905,1 52495U 22049AW  24059.45889573  .00000619  00000-0  56980-4 0  9999,2 52495  53.2156 132.1445 0001417  80.3526 279.7626 15.08831205100807,6917.907,95.438,540.753,538.792,0.0
52495.0,STARLINK-3905,PAYLOAD,2024-02-29 04:30:02,15.08841035,0.0001444,53.2163,128.8725,83.0195,277.0962,0.00015261,2.142e-05,0.0,0 STARLINK-3905,1 52495U 22049AW  24060.18752936  .00002142  00000-0  15261-3 0  9992,2 52495  53.2163 128.8725 0001444  83.0195 277.0962 15.08841035100918,6917.877,95.437,540.741,538.743,0.0
52495.0,STARLINK-3905,PAYLOAD,2024-02-29 14:02:20,15.08852349,0.0001457,53.216,127.0883,83.3366,276.7792,0.0002484,3.669e-05,0.0,0 STARLINK-3905,1 52495U 22049AW  24060.58496003  .00003669  00000-0  24840-3 0  9994,2 52495  53.2160 127.0883 0001457  83.3366 276.7792 15.08852349100814,6917.843,95.437,540.716,538.7,0.0
52495.0,STARLINK-3905,PAYLOAD,2024-02-29 21:59:16,15.08850236,0.000154,53.2183,125.6013,101.5379,258.5786,7.1625e-05,8.52e-06,0.0,0 STARLINK-3905,1 52495U 22049AW  24060.91616374  .00000852  00000-0  71625-4 0  9991,2 52495  53.2183 125.6013 0001540 101.5379 258.5786 15.08850236100867,6917.849,95.437,540.779,538.649,0.0
52495.0,STARLINK-3905,PAYLOAD,2024-03-01 10:42:22,15.08844421,0.0001489,53.2153,123.2232,87.1058,273.0105,0.00019133,2.759e-05,0.0,0 STARLINK-3905,1 52495U 22049AW  24061.44609023  .00002759  00000-0  19133-3 0  9996,2 52495  53.2153 123.2232 0001489  87.1058 273.0105 15.08844421100941,6917.867,95.437,540.762,538.702,0.0
52495.0,STARLINK-3905,PAYLOAD,2024-03-02 08:57:45,15.08847279,0.0001597,53.2161,119.0591,90.7558,269.3617,3.8773e-06,-2.26e-06,0.0,0 STARLINK-3905,1 52495U 22049AW  24062.37344599 -.00000226  00000-0  38773-5 0  9994,2 52495  53.2161 119.0591 0001597  90.7558 269.3617 15.08847279101082,6917.858,95.437,540.828,538.618,0.0
52495.0,STARLINK-3905,PAYLOAD,2024-03-03 02:27:00,15.08837534,0.0001488,53.2157,115.7894,85.9997,274.1166,1.8972e-05,1.4e-07,0.0,0 STARLINK-3905,1 52495U 22049AW  24063.10209041  .00000014  00000-0  18972-4 0  9990,2 52495  53.2157 115.7894 0001488  85.9997 274.1166 15.08837534101354,6917.888,95.438,540.782,538.724,0.0
52495.0,STARLINK-3905,PAYLOAD,2024-03-03 10:23:56,15.08838094,0.0001442,53.2166,114.302,88.894,271.2218,8.7259e-05,1.101e-05,0.0,0 STARLINK-3905,1 52495U 22049AW  24063.43329173  .00001101  00000-0  87259-4 0  9997,2 52495  53.2166 114.3020 0001442  88.8940 271.2218 15.08838094101246,6917.886,95.438,540.749,538.754,0.0
52495.0,STARLINK-3905,PAYLOAD,2024-03-04 11:50:05,15.08847906,0.0001716,53.2176,109.5461,104.3533,255.765,0.00010783,1.429e-05,0.0,0 STARLINK-3905,1 52495U 22049AW  24064.49312355  .00001429  00000-0  10783-3 0  9998,2 52495  53.2176 109.5461 0001716 104.3533 255.7650 15.08847906101562,6917.856,95.437,540.908,538.534,0.0
52495.0,STARLINK-3905,PAYLOAD,2024-03-04 19:47:01,15.08846045,0.0001478,53.2158,108.0577,91.849,268.2672,0.00015976,2.256e-05,0.0,0 STARLINK-3905,1 52495U 22049AW  24064.82432424  .00002256  00000-0  15976-3 0  9993,2 52495  53.2158 108.0577 0001478  91.8490 268.2672 15.08846045101455,6917.862,95.437,540.749,538.704,0.0
52495.0,STARLINK-3905,PAYLOAD,2024-03-05 11:40:54,15.08820629,0.0001702,53.2173,105.0833,94.1836,265.9351,-0.00021795,-3.753e-05,0.0,0 STARLINK-3905,1 52495U 22049AW  24065.48674329 -.00003753  00000-0 -21795-3 0  9999,2 52495  53.2173 105.0833 0001702  94.1836 265.9351 15.08820629101553,6917.94,95.439,540.982,538.627,0.0
52495.0,STARLINK-3905,PAYLOAD,2024-03-06 11:31:41,15.08843888,0.0001535,53.2159,100.622,96.5484,263.5683,0.00053667,8.264e-05,0.0,0 STARLINK-3905,1 52495U 22049AW  24066.48034209  .00008264  00000-0  53667-3 0  9990,2 52495  53.2159 100.6220 0001535  96.5484 263.5683 15.08843888101865,6917.869,95.437,540.795,538.672,0.0
52495.0,STARLINK-3905,PAYLOAD,2024-03-07 11:22:28,15.08847148,0.0001645,53.2157,96.1608,105.3059,254.8115,0.00030525,4.574e-05,0.0,0 STARLINK-3905,1 52495U 22049AW  24067.47394182  .00004574  00000-0  30525-3 0  9997,2 52495  53.2157  96.1608 0001645 105.3059 254.8115 15.08847148101856,6917.859,95.437,540.862,538.586,0.0
52495.0,STARLINK-3905,PAYLOAD,2024-03-08 01:40:56,15.08849596,0.0001602,53.2156,93.4859,102.9979,257.1192,0.00026165,3.88e-05,0.0,0 STARLINK-3905,1 52495U 22049AW  24068.07009927  .00003880  00000-0  26165-3 0  9998,2 52495  53.2156  93.4859 0001602 102.9979 257.1192 15.08849596102109,6917.851,95.437,540.824,538.608,0.0
